<?xml version="1.0" encoding="UTF-8"?>
<gpx version="1.1" creator="Sunō" xmlns="http://www.topografix.com/GPX/1/1">
  <wpt lat="47.0537500" lon="10.6090470"/>
  <wpt lat="47.0539280" lon="10.6089960"/>
  <wpt lat="47.0540460" lon="10.6091980"/>
  <wpt lat="47.0540470" lon="10.6089230"/>
  <wpt lat="47.0540790" lon="10.6088140"/>
  <wpt lat="47.0539540" lon="10.6090600"/>
  <wpt lat="47.0538290" lon="10.6090030"/>
  <wpt lat="47.0539900" lon="10.6088010"/>
  <wpt lat="47.0518620" lon="10.5921880"/>
  <wpt lat="47.0520030" lon="10.5921590"/>
  <wpt lat="47.0519370" lon="10.5926410"/>
  <wpt lat="47.0516570" lon="10.5926430"/>
  <wpt lat="47.0513890" lon="10.5927450"/>
  <wpt lat="47.0510950" lon="10.5927650"/>
  <wpt lat="47.0507860" lon="10.5927220"/>
  <wpt lat="47.0504600" lon="10.5926860"/>
  <wpt lat="47.0501460" lon="10.5925130"/>
  <wpt lat="47.0498760" lon="10.5922850"/>
  <wpt lat="47.0496110" lon="10.5920070"/>
  <wpt lat="47.0492910" lon="10.5917750"/>
  <wpt lat="47.0490160" lon="10.5914730"/>
  <wpt lat="47.0487110" lon="10.5912790"/>
  <wpt lat="47.0484670" lon="10.5910350"/>
  <wpt lat="47.0482030" lon="10.5906950"/>
  <wpt lat="47.0481070" lon="10.5903150"/>
  <wpt lat="47.0481110" lon="10.5898960"/>
  <wpt lat="47.0481210" lon="10.5894690"/>
  <wpt lat="47.0481610" lon="10.5890250"/>
  <wpt lat="47.0482550" lon="10.5886220"/>
  <wpt lat="47.0482550" lon="10.5880650"/>
  <wpt lat="47.0482780" lon="10.5876310"/>
  <wpt lat="47.0482750" lon="10.5872070"/>
  <wpt lat="47.0482600" lon="10.5867790"/>
  <wpt lat="47.0482840" lon="10.5863580"/>
  <wpt lat="47.0481880" lon="10.5856680"/>
  <wpt lat="47.0479620" lon="10.5850670"/>
  <wpt lat="47.0477540" lon="10.5845410"/>
  <wpt lat="47.0474040" lon="10.5840390"/>
  <wpt lat="47.0470530" lon="10.5844380"/>
  <wpt lat="47.0468780" lon="10.5848120"/>
  <wpt lat="47.0467040" lon="10.5851900"/>
  <wpt lat="47.0464360" lon="10.5854220"/>
  <wpt lat="47.0461220" lon="10.5858270"/>
  <wpt lat="47.0458770" lon="10.5860630"/>
  <wpt lat="47.0455950" lon="10.5862320"/>
  <wpt lat="47.0453250" lon="10.5863970"/>
  <wpt lat="47.0450760" lon="10.5866420"/>
  <wpt lat="47.0448920" lon="10.5869750"/>
  <wpt lat="47.0446920" lon="10.5874100"/>
  <wpt lat="47.0443880" lon="10.5880090"/>
  <wpt lat="47.0439950" lon="10.5884170"/>
  <wpt lat="47.0438510" lon="10.5887790"/>
  <wpt lat="47.0436940" lon="10.5891400"/>
  <wpt lat="47.0436180" lon="10.5896490"/>
  <wpt lat="47.0434020" lon="10.5893790"/>
  <wpt lat="47.0433120" lon="10.5888470"/>
  <wpt lat="47.0432510" lon="10.5883230"/>
  <wpt lat="47.0431820" lon="10.5878240"/>
  <wpt lat="47.0431200" lon="10.5873210"/>
  <wpt lat="47.0430510" lon="10.5868250"/>
  <wpt lat="47.0429880" lon="10.5863240"/>
  <wpt lat="47.0429270" lon="10.5858130"/>
  <wpt lat="47.0428610" lon="10.5853120"/>
  <wpt lat="47.0427880" lon="10.5848060"/>
  <wpt lat="47.0427150" lon="10.5843030"/>
  <wpt lat="47.0426530" lon="10.5837900"/>
  <wpt lat="47.0425780" lon="10.5833070"/>
  <wpt lat="47.0425140" lon="10.5828100"/>
  <wpt lat="47.0424430" lon="10.5823240"/>
  <wpt lat="47.0423710" lon="10.5818220"/>
  <wpt lat="47.0423080" lon="10.5813190"/>
  <wpt lat="47.0422410" lon="10.5808300"/>
  <wpt lat="47.0421770" lon="10.5803370"/>
  <wpt lat="47.0421240" lon="10.5798430"/>
  <wpt lat="47.0420550" lon="10.5793560"/>
  <wpt lat="47.0420000" lon="10.5788890"/>
  <wpt lat="47.0419440" lon="10.5784060"/>
  <wpt lat="47.0418830" lon="10.5779410"/>
  <wpt lat="47.0418250" lon="10.5774750"/>
  <wpt lat="47.0417630" lon="10.5769990"/>
  <wpt lat="47.0417010" lon="10.5765250"/>
  <wpt lat="47.0416410" lon="10.5760390"/>
  <wpt lat="47.0415720" lon="10.5755840"/>
  <wpt lat="47.0415120" lon="10.5751040"/>
  <wpt lat="47.0414510" lon="10.5746300"/>
  <wpt lat="47.0413950" lon="10.5741470"/>
  <wpt lat="47.0413370" lon="10.5736580"/>
  <wpt lat="47.0412670" lon="10.5731690"/>
  <wpt lat="47.0411950" lon="10.5726860"/>
  <wpt lat="47.0411310" lon="10.5721930"/>
  <wpt lat="47.0410700" lon="10.5717140"/>
  <wpt lat="47.0410090" lon="10.5712460"/>
  <wpt lat="47.0409410" lon="10.5707360"/>
  <wpt lat="47.0408780" lon="10.5702440"/>
  <wpt lat="47.0408140" lon="10.5697550"/>
  <wpt lat="47.0407500" lon="10.5692510"/>
  <wpt lat="47.0406780" lon="10.5687230"/>
  <wpt lat="47.0406070" lon="10.5682320"/>
  <wpt lat="47.0405450" lon="10.5677270"/>
  <wpt lat="47.0404660" lon="10.5672500"/>
  <wpt lat="47.0404120" lon="10.5667750"/>
  <wpt lat="47.0403460" lon="10.5662820"/>
  <wpt lat="47.0402910" lon="10.5657810"/>
  <wpt lat="47.0402300" lon="10.5652780"/>
  <wpt lat="47.0401610" lon="10.5647850"/>
  <wpt lat="47.0400980" lon="10.5642750"/>
  <wpt lat="47.0400380" lon="10.5637870"/>
  <wpt lat="47.0399740" lon="10.5632750"/>
  <wpt lat="47.0399850" lon="10.5628590"/>
  <wpt lat="47.0349920" lon="10.5461830"/>
  <wpt lat="47.0348980" lon="10.5457980"/>
  <wpt lat="47.0346650" lon="10.5456610"/>
  <wpt lat="47.0343790" lon="10.5452980"/>
  <wpt lat="47.0340820" lon="10.5451270"/>
  <wpt lat="47.0337730" lon="10.5450980"/>
  <wpt lat="47.0334480" lon="10.5449770"/>
  <wpt lat="47.0330970" lon="10.5449380"/>
  <wpt lat="47.0328080" lon="10.5451890"/>
  <wpt lat="47.0324570" lon="10.5452680"/>
  <wpt lat="47.0321530" lon="10.5457370"/>
  <wpt lat="47.0319490" lon="10.5460450"/>
  <wpt lat="47.0316700" lon="10.5462870"/>
  <wpt lat="47.0313520" lon="10.5465580"/>
  <wpt lat="47.0310460" lon="10.5468500"/>
  <wpt lat="47.0307800" lon="10.5470580"/>
  <wpt lat="47.0305070" lon="10.5473100"/>
  <wpt lat="47.0302370" lon="10.5475230"/>
  <wpt lat="47.0299630" lon="10.5477940"/>
  <wpt lat="47.0297030" lon="10.5480820"/>
  <wpt lat="47.0294150" lon="10.5484100"/>
  <wpt lat="47.0290850" lon="10.5486140"/>
  <wpt lat="47.0288200" lon="10.5488070"/>
  <wpt lat="47.0285580" lon="10.5489420"/>
  <wpt lat="47.0282600" lon="10.5490060"/>
  <wpt lat="47.0279780" lon="10.5490690"/>
  <wpt lat="47.0276920" lon="10.5492050"/>
  <wpt lat="47.0273710" lon="10.5493290"/>
  <wpt lat="47.0270790" lon="10.5493770"/>
  <wpt lat="47.0268150" lon="10.5495790"/>
  <wpt lat="47.0265210" lon="10.5497800"/>
  <wpt lat="47.0261860" lon="10.5498130"/>
  <wpt lat="47.0258410" lon="10.5499640"/>
  <wpt lat="47.0255760" lon="10.5500980"/>
  <wpt lat="47.0253250" lon="10.5504160"/>
  <wpt lat="47.0250760" lon="10.5507260"/>
  <wpt lat="47.0248060" lon="10.5509670"/>
  <wpt lat="47.0245510" lon="10.5512600"/>
  <wpt lat="47.0242580" lon="10.5514540"/>
  <wpt lat="47.0239270" lon="10.5513680"/>
  <wpt lat="47.0236460" lon="10.5511960"/>
  <wpt lat="47.0233340" lon="10.5510590"/>
  <wpt lat="47.0231520" lon="10.5515350"/>
  <wpt lat="47.0231860" lon="10.5521120"/>
  <wpt lat="47.0231970" lon="10.5525560"/>
  <wpt lat="47.0232910" lon="10.5528340"/>
  <wpt lat="47.0334920" lon="10.5403690"/>
  <wpt lat="47.0337080" lon="10.5400510"/>
  <wpt lat="47.0339370" lon="10.5404450"/>
  <wpt lat="47.0342140" lon="10.5408050"/>
  <wpt lat="47.0343630" lon="10.5412740"/>
  <wpt lat="47.0346980" lon="10.5414260"/>
  <wpt lat="47.0349910" lon="10.5412310"/>
  <wpt lat="47.0353490" lon="10.5408550"/>
  <wpt lat="47.0356070" lon="10.5404610"/>
  <wpt lat="47.0358940" lon="10.5404970"/>
  <wpt lat="47.0362200" lon="10.5406810"/>
  <wpt lat="47.0366330" lon="10.5409140"/>
  <wpt lat="47.0370170" lon="10.5412040"/>
  <wpt lat="47.0373100" lon="10.5414190"/>
  <wpt lat="47.0376760" lon="10.5415530"/>
  <wpt lat="47.0380850" lon="10.5415720"/>
  <wpt lat="47.0383760" lon="10.5419300"/>
  <wpt lat="47.0386880" lon="10.5422590"/>
  <wpt lat="47.0390290" lon="10.5425980"/>
  <wpt lat="47.0393890" lon="10.5427600"/>
  <wpt lat="47.0397400" lon="10.5429210"/>
  <wpt lat="47.0399760" lon="10.5432570"/>
  <wpt lat="47.0402210" lon="10.5436460"/>
  <wpt lat="47.0405090" lon="10.5439480"/>
  <wpt lat="47.0406100" lon="10.5444430"/>
  <wpt lat="47.0404910" lon="10.5445760"/>
  <wpt lat="47.0354590" lon="10.5256060"/>
  <wpt lat="47.0353170" lon="10.5257020"/>
  <wpt lat="47.0350870" lon="10.5261350"/>
  <wpt lat="47.0348650" lon="10.5265840"/>
  <wpt lat="47.0348570" lon="10.5269880"/>
  <wpt lat="47.0349900" lon="10.5273400"/>
  <wpt lat="47.0352160" lon="10.5275630"/>
  <wpt lat="47.0355010" lon="10.5277830"/>
  <wpt lat="47.0357560" lon="10.5281430"/>
  <wpt lat="47.0360330" lon="10.5283500"/>
  <wpt lat="47.0363570" lon="10.5286010"/>
  <wpt lat="47.0366330" lon="10.5287810"/>
  <wpt lat="47.0369090" lon="10.5290970"/>
  <wpt lat="47.0372600" lon="10.5294720"/>
  <wpt lat="47.0375910" lon="10.5297950"/>
  <wpt lat="47.0378420" lon="10.5300860"/>
  <wpt lat="47.0380670" lon="10.5304200"/>
  <wpt lat="47.0383200" lon="10.5308770"/>
  <wpt lat="47.0386330" lon="10.5313700"/>
  <wpt lat="47.0389670" lon="10.5318160"/>
  <wpt lat="47.0392090" lon="10.5322570"/>
  <wpt lat="47.0394190" lon="10.5326690"/>
  <wpt lat="47.0395130" lon="10.5331370"/>
  <wpt lat="47.0396770" lon="10.5335550"/>
  <wpt lat="47.0398270" lon="10.5340150"/>
  <wpt lat="47.0399770" lon="10.5344780"/>
  <wpt lat="47.0401680" lon="10.5348240"/>
  <wpt lat="47.0404550" lon="10.5350770"/>
  <wpt lat="47.0407060" lon="10.5354380"/>
  <wpt lat="47.0408010" lon="10.5358600"/>
  <wpt lat="47.0408610" lon="10.5363110"/>
  <wpt lat="47.0409040" lon="10.5367570"/>
  <wpt lat="47.0409200" lon="10.5372500"/>
  <wpt lat="47.0409540" lon="10.5377400"/>
  <wpt lat="47.0409190" lon="10.5383040"/>
  <wpt lat="47.0408850" lon="10.5387590"/>
  <wpt lat="47.0408260" lon="10.5391960"/>
  <wpt lat="47.0407810" lon="10.5397240"/>
  <wpt lat="47.0408180" lon="10.5403950"/>
  <wpt lat="47.0409150" lon="10.5410090"/>
  <wpt lat="47.0410150" lon="10.5416530"/>
  <wpt lat="47.0409910" lon="10.5422950"/>
  <wpt lat="47.0409170" lon="10.5428350"/>
  <wpt lat="47.0408430" lon="10.5433160"/>
  <wpt lat="47.0407620" lon="10.5437540"/>
  <wpt lat="47.0406110" lon="10.5441130"/>
  <wpt lat="47.0405910" lon="10.5444990"/>
  <wpt lat="47.0354900" lon="10.5259610"/>
  <wpt lat="47.0354560" lon="10.5254350"/>
  <wpt lat="47.0353380" lon="10.5256210"/>
  <wpt lat="47.0351360" lon="10.5260930"/>
  <wpt lat="47.0348960" lon="10.5265660"/>
  <wpt lat="47.0348150" lon="10.5269720"/>
  <wpt lat="47.0349890" lon="10.5273910"/>
  <wpt lat="47.0352270" lon="10.5276810"/>
  <wpt lat="47.0353780" lon="10.5281000"/>
  <wpt lat="47.0349680" lon="10.5282040"/>
  <wpt lat="47.0346040" lon="10.5280100"/>
  <wpt lat="47.0342910" lon="10.5278440"/>
  <wpt lat="47.0341610" lon="10.5281810"/>
  <wpt lat="47.0342030" lon="10.5286870"/>
  <wpt lat="47.0343270" lon="10.5291700"/>
  <wpt lat="47.0344760" lon="10.5297220"/>
  <wpt lat="47.0346680" lon="10.5301640"/>
  <wpt lat="47.0348290" lon="10.5305960"/>
  <wpt lat="47.0350140" lon="10.5310160"/>
  <wpt lat="47.0352200" lon="10.5314750"/>
  <wpt lat="47.0354000" lon="10.5318770"/>
  <wpt lat="47.0355930" lon="10.5322710"/>
  <wpt lat="47.0358230" lon="10.5327450"/>
  <wpt lat="47.0361040" lon="10.5330880"/>
  <wpt lat="47.0364010" lon="10.5334290"/>
  <wpt lat="47.0365360" lon="10.5338230"/>
  <wpt lat="47.0366420" lon="10.5342920"/>
  <wpt lat="47.0366820" lon="10.5348050"/>
  <wpt lat="47.0367170" lon="10.5352790"/>
  <wpt lat="47.0367480" lon="10.5357540"/>
  <wpt lat="47.0369300" lon="10.5361000"/>
  <wpt lat="47.0372170" lon="10.5364900"/>
  <wpt lat="47.0374590" lon="10.5367990"/>
  <wpt lat="47.0378340" lon="10.5369870"/>
  <wpt lat="47.0380370" lon="10.5372820"/>
  <wpt lat="47.0382320" lon="10.5376010"/>
  <wpt lat="47.0384980" lon="10.5378870"/>
  <wpt lat="47.0387730" lon="10.5380020"/>
  <wpt lat="47.0391040" lon="10.5381800"/>
  <wpt lat="47.0395020" lon="10.5385110"/>
  <wpt lat="47.0398230" lon="10.5387590"/>
  <wpt lat="47.0402020" lon="10.5390490"/>
  <wpt lat="47.0403320" lon="10.5394550"/>
  <wpt lat="47.0405230" lon="10.5398310"/>
  <wpt lat="47.0406580" lon="10.5402310"/>
  <wpt lat="47.0407510" lon="10.5406490"/>
  <wpt lat="47.0409090" lon="10.5411270"/>
  <wpt lat="47.0409730" lon="10.5415280"/>
  <wpt lat="47.0410470" lon="10.5420270"/>
  <wpt lat="47.0409850" lon="10.5426530"/>
  <wpt lat="47.0408820" lon="10.5432050"/>
  <wpt lat="47.0407800" lon="10.5436670"/>
  <wpt lat="47.0406180" lon="10.5440830"/>
  <wpt lat="47.0405930" lon="10.5444940"/>
  <wpt lat="47.0404370" lon="10.5445930"/>
  <wpt lat="47.0354510" lon="10.5255750"/>
  <wpt lat="47.0353500" lon="10.5252010"/>
  <wpt lat="47.0353290" lon="10.5256700"/>
  <wpt lat="47.0351160" lon="10.5261720"/>
  <wpt lat="47.0348940" lon="10.5266170"/>
  <wpt lat="47.0348770" lon="10.5270510"/>
  <wpt lat="47.0350690" lon="10.5274710"/>
  <wpt lat="47.0353220" lon="10.5277720"/>
  <wpt lat="47.0352670" lon="10.5281720"/>
  <wpt lat="47.0349150" lon="10.5281370"/>
  <wpt lat="47.0345620" lon="10.5279710"/>
  <wpt lat="47.0342510" lon="10.5278000"/>
  <wpt lat="47.0341420" lon="10.5280180"/>
  <wpt lat="47.0341780" lon="10.5285020"/>
  <wpt lat="47.0343040" lon="10.5291230"/>
  <wpt lat="47.0344600" lon="10.5296860"/>
  <wpt lat="47.0345990" lon="10.5301540"/>
  <wpt lat="47.0345580" lon="10.5306210"/>
  <wpt lat="47.0343320" lon="10.5310590"/>
  <wpt lat="47.0343640" lon="10.5315870"/>
  <wpt lat="47.0344430" lon="10.5320320"/>
  <wpt lat="47.0344480" lon="10.5326640"/>
  <wpt lat="47.0346270" lon="10.5330700"/>
  <wpt lat="47.0347750" lon="10.5334950"/>
  <wpt lat="47.0350920" lon="10.5336570"/>
  <wpt lat="47.0352690" lon="10.5341520"/>
  <wpt lat="47.0355870" lon="10.5346250"/>
  <wpt lat="47.0358410" lon="10.5349510"/>
  <wpt lat="47.0360670" lon="10.5353220"/>
  <wpt lat="47.0363510" lon="10.5356700"/>
  <wpt lat="47.0365990" lon="10.5359810"/>
  <wpt lat="47.0368070" lon="10.5362440"/>
  <wpt lat="47.0370730" lon="10.5364680"/>
  <wpt lat="47.0374110" lon="10.5365780"/>
  <wpt lat="47.0376640" lon="10.5368630"/>
  <wpt lat="47.0380400" lon="10.5369260"/>
  <wpt lat="47.0383100" lon="10.5372810"/>
  <wpt lat="47.0386560" lon="10.5376580"/>
  <wpt lat="47.0390020" lon="10.5380370"/>
  <wpt lat="47.0393220" lon="10.5382760"/>
  <wpt lat="47.0396380" lon="10.5384880"/>
  <wpt lat="47.0399330" lon="10.5387820"/>
  <wpt lat="47.0402400" lon="10.5391790"/>
  <wpt lat="47.0403910" lon="10.5395760"/>
  <wpt lat="47.0405400" lon="10.5399850"/>
  <wpt lat="47.0407080" lon="10.5403630"/>
  <wpt lat="47.0408760" lon="10.5408350"/>
  <wpt lat="47.0409470" lon="10.5412490"/>
  <wpt lat="47.0410690" lon="10.5418560"/>
  <wpt lat="47.0410140" lon="10.5424860"/>
  <wpt lat="47.0409260" lon="10.5430090"/>
  <wpt lat="47.0408130" lon="10.5434070"/>
  <wpt lat="47.0408360" lon="10.5438490"/>
  <wpt lat="47.0408110" lon="10.5442570"/>
  <wpt lat="47.0408060" lon="10.5447350"/>
  <wpt lat="47.0408170" lon="10.5452250"/>
  <wpt lat="47.0408480" lon="10.5458240"/>
  <wpt lat="47.0409400" lon="10.5464700"/>
  <wpt lat="47.0409430" lon="10.5470970"/>
  <wpt lat="47.0409830" lon="10.5478240"/>
  <wpt lat="47.0410680" lon="10.5485510"/>
  <wpt lat="47.0411440" lon="10.5492150"/>
  <wpt lat="47.0412060" lon="10.5498600"/>
  <wpt lat="47.0413630" lon="10.5504370"/>
  <wpt lat="47.0413580" lon="10.5510640"/>
  <wpt lat="47.0412750" lon="10.5517870"/>
  <wpt lat="47.0411000" lon="10.5522780"/>
  <wpt lat="47.0408870" lon="10.5527550"/>
  <wpt lat="47.0405550" lon="10.5532240"/>
  <wpt lat="47.0403200" lon="10.5538560"/>
  <wpt lat="47.0400950" lon="10.5544580"/>
  <wpt lat="47.0399940" lon="10.5551000"/>
  <wpt lat="47.0398800" lon="10.5556300"/>
  <wpt lat="47.0397970" lon="10.5561160"/>
  <wpt lat="47.0397170" lon="10.5565520"/>
  <wpt lat="47.0396420" lon="10.5570630"/>
  <wpt lat="47.0395430" lon="10.5576750"/>
  <wpt lat="47.0394960" lon="10.5581820"/>
  <wpt lat="47.0394580" lon="10.5586550"/>
  <wpt lat="47.0394070" lon="10.5590830"/>
  <wpt lat="47.0394060" lon="10.5595510"/>
  <wpt lat="47.0398980" lon="10.5617010"/>
  <wpt lat="47.0400060" lon="10.5621530"/>
  <wpt lat="47.0401800" lon="10.5625730"/>
  <wpt lat="47.0400950" lon="10.5629080"/>
  <wpt lat="47.0399600" lon="10.5627420"/>
  <wpt lat="47.0396830" lon="10.5619700"/>
  <wpt lat="47.0349520" lon="10.5459210"/>
  <wpt lat="47.0348240" lon="10.5455620"/>
  <wpt lat="47.0347410" lon="10.5451700"/>
  <wpt lat="47.0346570" lon="10.5447600"/>
  <wpt lat="47.0346130" lon="10.5443360"/>
  <wpt lat="47.0347570" lon="10.5440790"/>
  <wpt lat="47.0350500" lon="10.5440270"/>
  <wpt lat="47.0354270" lon="10.5440410"/>
  <wpt lat="47.0358960" lon="10.5440160"/>
  <wpt lat="47.0362270" lon="10.5439370"/>
  <wpt lat="47.0365250" lon="10.5436350"/>
  <wpt lat="47.0367680" lon="10.5433330"/>
  <wpt lat="47.0370380" lon="10.5430920"/>
  <wpt lat="47.0373620" lon="10.5427630"/>
  <wpt lat="47.0377600" lon="10.5426390"/>
  <wpt lat="47.0381710" lon="10.5426710"/>
  <wpt lat="47.0384960" lon="10.5426750"/>
  <wpt lat="47.0388710" lon="10.5428380"/>
  <wpt lat="47.0391540" lon="10.5429270"/>
  <wpt lat="47.0394820" lon="10.5430410"/>
  <wpt lat="47.0397740" lon="10.5432090"/>
  <wpt lat="47.0401140" lon="10.5433500"/>
  <wpt lat="47.0403360" lon="10.5436580"/>
  <wpt lat="47.0405610" lon="10.5439850"/>
  <wpt lat="47.0406040" lon="10.5444460"/>
  <wpt lat="47.0404480" lon="10.5446530"/>
  <wpt lat="47.0354460" lon="10.5257450"/>
  <wpt lat="47.0354450" lon="10.5253500"/>
  <wpt lat="47.0353100" lon="10.5257850"/>
  <wpt lat="47.0350490" lon="10.5262600"/>
  <wpt lat="47.0348550" lon="10.5266650"/>
  <wpt lat="47.0348680" lon="10.5270590"/>
  <wpt lat="47.0351050" lon="10.5274510"/>
  <wpt lat="47.0352490" lon="10.5278630"/>
  <wpt lat="47.0354890" lon="10.5280510"/>
  <wpt lat="47.0351670" lon="10.5281660"/>
  <wpt lat="47.0347470" lon="10.5280440"/>
  <wpt lat="47.0343380" lon="10.5278560"/>
  <wpt lat="47.0340860" lon="10.5279820"/>
  <wpt lat="47.0340790" lon="10.5283720"/>
  <wpt lat="47.0341520" lon="10.5288280"/>
  <wpt lat="47.0341010" lon="10.5291870"/>
  <wpt lat="47.0338690" lon="10.5295370"/>
  <wpt lat="47.0338580" lon="10.5299340"/>
  <wpt lat="47.0338580" lon="10.5303910"/>
  <wpt lat="47.0340000" lon="10.5308200"/>
  <wpt lat="47.0341420" lon="10.5312440"/>
  <wpt lat="47.0342860" lon="10.5316430"/>
  <wpt lat="47.0344500" lon="10.5321260"/>
  <wpt lat="47.0344390" lon="10.5326080"/>
  <wpt lat="47.0347620" lon="10.5330890"/>
  <wpt lat="47.0349530" lon="10.5335210"/>
  <wpt lat="47.0350750" lon="10.5339520"/>
  <wpt lat="47.0353170" lon="10.5342260"/>
  <wpt lat="47.0355390" lon="10.5344960"/>
  <wpt lat="47.0357880" lon="10.5347620"/>
  <wpt lat="47.0360950" lon="10.5350390"/>
  <wpt lat="47.0363660" lon="10.5354440"/>
  <wpt lat="47.0366360" lon="10.5357480"/>
  <wpt lat="47.0369240" lon="10.5359510"/>
  <wpt lat="47.0371430" lon="10.5363610"/>
  <wpt lat="47.0374010" lon="10.5367120"/>
  <wpt lat="47.0377150" lon="10.5366850"/>
  <wpt lat="47.0380300" lon="10.5366560"/>
  <wpt lat="47.0383840" lon="10.5368950"/>
  <wpt lat="47.0387100" lon="10.5369950"/>
  <wpt lat="47.0390580" lon="10.5371510"/>
  <wpt lat="47.0394040" lon="10.5374640"/>
  <wpt lat="47.0397530" lon="10.5377550"/>
  <wpt lat="47.0399460" lon="10.5380680"/>
  <wpt lat="47.0401460" lon="10.5385040"/>
  <wpt lat="47.0402910" lon="10.5389770"/>
  <wpt lat="47.0404900" lon="10.5393850"/>
  <wpt lat="47.0406870" lon="10.5398220"/>
  <wpt lat="47.0408030" lon="10.5402840"/>
  <wpt lat="47.0408960" lon="10.5407280"/>
  <wpt lat="47.0409890" lon="10.5411480"/>
  <wpt lat="47.0410460" lon="10.5417960"/>
  <wpt lat="47.0409750" lon="10.5424900"/>
  <wpt lat="47.0408580" lon="10.5430600"/>
  <wpt lat="47.0407780" lon="10.5435250"/>
  <wpt lat="47.0406440" lon="10.5439640"/>
  <wpt lat="47.0405920" lon="10.5443730"/>
  <wpt lat="47.0404560" lon="10.5446580"/>
  <wpt lat="47.0354600" lon="10.5258620"/>
  <wpt lat="47.0354210" lon="10.5253610"/>
  <wpt lat="47.0353880" lon="10.5253320"/>
  <wpt lat="47.0352620" lon="10.5258090"/>
  <wpt lat="47.0350610" lon="10.5262670"/>
  <wpt lat="47.0348620" lon="10.5266110"/>
  <wpt lat="47.0348290" lon="10.5270340"/>
  <wpt lat="47.0350570" lon="10.5273550"/>
  <wpt lat="47.0351840" lon="10.5277500"/>
  <wpt lat="47.0354090" lon="10.5280860"/>
  <wpt lat="47.0350340" lon="10.5281840"/>
  <wpt lat="47.0346080" lon="10.5279860"/>
  <wpt lat="47.0342600" lon="10.5278300"/>
  <wpt lat="47.0341630" lon="10.5280930"/>
  <wpt lat="47.0341470" lon="10.5285920"/>
  <wpt lat="47.0342640" lon="10.5290240"/>
  <wpt lat="47.0344140" lon="10.5294910"/>
  <wpt lat="47.0345950" lon="10.5299870"/>
  <wpt lat="47.0347910" lon="10.5304840"/>
  <wpt lat="47.0349840" lon="10.5309620"/>
  <wpt lat="47.0351620" lon="10.5314080"/>
  <wpt lat="47.0351910" lon="10.5318250"/>
  <wpt lat="47.0350120" lon="10.5322200"/>
  <wpt lat="47.0349560" lon="10.5326090"/>
  <wpt lat="47.0351300" lon="10.5329940"/>
  <wpt lat="47.0353040" lon="10.5333970"/>
  <wpt lat="47.0354370" lon="10.5337790"/>
  <wpt lat="47.0355930" lon="10.5342560"/>
  <wpt lat="47.0357780" lon="10.5345610"/>
  <wpt lat="47.0359600" lon="10.5349090"/>
  <wpt lat="47.0362170" lon="10.5352330"/>
  <wpt lat="47.0364200" lon="10.5356140"/>
  <wpt lat="47.0365900" lon="10.5359870"/>
  <wpt lat="47.0369040" lon="10.5363540"/>
  <wpt lat="47.0372570" lon="10.5366620"/>
  <wpt lat="47.0375730" lon="10.5369820"/>
  <wpt lat="47.0377890" lon="10.5372960"/>
  <wpt lat="47.0380870" lon="10.5377340"/>
  <wpt lat="47.0383430" lon="10.5381070"/>
  <wpt lat="47.0386310" lon="10.5379800"/>
  <wpt lat="47.0388840" lon="10.5381700"/>
  <wpt lat="47.0391450" lon="10.5383700"/>
  <wpt lat="47.0393950" lon="10.5386260"/>
  <wpt lat="47.0397780" lon="10.5389000"/>
  <wpt lat="47.0400990" lon="10.5390470"/>
  <wpt lat="47.0403450" lon="10.5395770"/>
  <wpt lat="47.0405380" lon="10.5399980"/>
  <wpt lat="47.0406970" lon="10.5403850"/>
  <wpt lat="47.0408470" lon="10.5410070"/>
  <wpt lat="47.0409560" lon="10.5416310"/>
  <wpt lat="47.0409870" lon="10.5423120"/>
  <wpt lat="47.0409050" lon="10.5429050"/>
  <wpt lat="47.0408260" lon="10.5433950"/>
  <wpt lat="47.0407320" lon="10.5438340"/>
  <wpt lat="47.0405820" lon="10.5442120"/>
  <wpt lat="47.0405550" lon="10.5444810"/>
  <wpt lat="47.0355170" lon="10.5257520"/>
  <wpt lat="47.0354400" lon="10.5252960"/>
  <wpt lat="47.0353860" lon="10.5255460"/>
  <wpt lat="47.0352080" lon="10.5259970"/>
  <wpt lat="47.0350690" lon="10.5264370"/>
  <wpt lat="47.0353620" lon="10.5266430"/>
  <wpt lat="47.0353690" lon="10.5270870"/>
  <wpt lat="47.0354550" lon="10.5275070"/>
  <wpt lat="47.0354790" lon="10.5280980"/>
  <wpt lat="47.0350910" lon="10.5282150"/>
  <wpt lat="47.0346470" lon="10.5280310"/>
  <wpt lat="47.0342810" lon="10.5278070"/>
  <wpt lat="47.0341050" lon="10.5280820"/>
  <wpt lat="47.0342220" lon="10.5286180"/>
  <wpt lat="47.0343440" lon="10.5290830"/>
  <wpt lat="47.0345410" lon="10.5295760"/>
  <wpt lat="47.0347470" lon="10.5301330"/>
  <wpt lat="47.0349600" lon="10.5306110"/>
  <wpt lat="47.0351840" lon="10.5311380"/>
  <wpt lat="47.0353840" lon="10.5316090"/>
  <wpt lat="47.0355790" lon="10.5320500"/>
  <wpt lat="47.0357320" lon="10.5325120"/>
  <wpt lat="47.0359070" lon="10.5330100"/>
  <wpt lat="47.0360320" lon="10.5334200"/>
  <wpt lat="47.0362380" lon="10.5337500"/>
  <wpt lat="47.0365120" lon="10.5339980"/>
  <wpt lat="47.0368000" lon="10.5343270"/>
  <wpt lat="47.0370430" lon="10.5346670"/>
  <wpt lat="47.0372680" lon="10.5351300"/>
  <wpt lat="47.0374990" lon="10.5354680"/>
  <wpt lat="47.0376890" lon="10.5358350"/>
  <wpt lat="47.0379130" lon="10.5362090"/>
  <wpt lat="47.0382000" lon="10.5364860"/>
  <wpt lat="47.0385070" lon="10.5366600"/>
  <wpt lat="47.0389240" lon="10.5369580"/>
  <wpt lat="47.0392810" lon="10.5372770"/>
  <wpt lat="47.0396090" lon="10.5374860"/>
  <wpt lat="47.0398960" lon="10.5378860"/>
  <wpt lat="47.0401490" lon="10.5382960"/>
  <wpt lat="47.0402800" lon="10.5386610"/>
  <wpt lat="47.0403680" lon="10.5391010"/>
  <wpt lat="47.0405320" lon="10.5395050"/>
  <wpt lat="47.0407020" lon="10.5398910"/>
  <wpt lat="47.0407820" lon="10.5403080"/>
  <wpt lat="47.0408510" lon="10.5407070"/>
  <wpt lat="47.0409330" lon="10.5410920"/>
  <wpt lat="47.0410060" lon="10.5414820"/>
  <wpt lat="47.0410360" lon="10.5422040"/>
  <wpt lat="47.0409750" lon="10.5428460"/>
  <wpt lat="47.0408890" lon="10.5433990"/>
  <wpt lat="47.0408540" lon="10.5438960"/>
  <wpt lat="47.0408320" lon="10.5443810"/>
  <wpt lat="47.0407940" lon="10.5448450"/>
  <wpt lat="47.0407950" lon="10.5453520"/>
  <wpt lat="47.0408340" lon="10.5459580"/>
  <wpt lat="47.0409010" lon="10.5466280"/>
  <wpt lat="47.0409200" lon="10.5473440"/>
  <wpt lat="47.0409660" lon="10.5480340"/>
  <wpt lat="47.0410640" lon="10.5487480"/>
  <wpt lat="47.0411350" lon="10.5494310"/>
  <wpt lat="47.0412410" lon="10.5501210"/>
  <wpt lat="47.0413140" lon="10.5507310"/>
  <wpt lat="47.0413110" lon="10.5513940"/>
  <wpt lat="47.0411700" lon="10.5520470"/>
  <wpt lat="47.0409440" lon="10.5525040"/>
  <wpt lat="47.0406900" lon="10.5529640"/>
  <wpt lat="47.0404070" lon="10.5534770"/>
  <wpt lat="47.0401950" lon="10.5540800"/>
  <wpt lat="47.0400140" lon="10.5547020"/>
  <wpt lat="47.0399320" lon="10.5553010"/>
  <wpt lat="47.0398500" lon="10.5557980"/>
  <wpt lat="47.0397690" lon="10.5562370"/>
  <wpt lat="47.0396780" lon="10.5568550"/>
  <wpt lat="47.0395990" lon="10.5574110"/>
  <wpt lat="47.0395190" lon="10.5578740"/>
  <wpt lat="47.0395340" lon="10.5583480"/>
  <wpt lat="47.0394480" lon="10.5588100"/>
  <wpt lat="47.0393980" lon="10.5592200"/>
  <wpt lat="47.0394170" lon="10.5596410"/>
  <wpt lat="47.0399200" lon="10.5617250"/>
  <wpt lat="47.0400330" lon="10.5621890"/>
  <wpt lat="47.0401860" lon="10.5626230"/>
  <wpt lat="47.0402100" lon="10.5630950"/>
  <wpt lat="47.0402300" lon="10.5636930"/>
  <wpt lat="47.0400780" lon="10.5643530"/>
  <wpt lat="47.0400410" lon="10.5648760"/>
  <wpt lat="47.0400690" lon="10.5653010"/>
  <wpt lat="47.0400260" lon="10.5657330"/>
  <wpt lat="47.0400840" lon="10.5661880"/>
  <wpt lat="47.0402100" lon="10.5666250"/>
  <wpt lat="47.0404200" lon="10.5668950"/>
  <wpt lat="47.0406110" lon="10.5672250"/>
  <wpt lat="47.0408930" lon="10.5677340"/>
  <wpt lat="47.0410750" lon="10.5681600"/>
  <wpt lat="47.0412860" lon="10.5684340"/>
  <wpt lat="47.0413300" lon="10.5688760"/>
  <wpt lat="47.0416230" lon="10.5693740"/>
  <wpt lat="47.0418930" lon="10.5695980"/>
  <wpt lat="47.0421780" lon="10.5698530"/>
  <wpt lat="47.0424120" lon="10.5702040"/>
  <wpt lat="47.0427170" lon="10.5706980"/>
  <wpt lat="47.0429680" lon="10.5710010"/>
  <wpt lat="47.0431160" lon="10.5714760"/>
  <wpt lat="47.0433380" lon="10.5718390"/>
  <wpt lat="47.0436840" lon="10.5719540"/>
  <wpt lat="47.0439960" lon="10.5720630"/>
  <wpt lat="47.0441750" lon="10.5724170"/>
  <wpt lat="47.0443230" lon="10.5727780"/>
  <wpt lat="47.0445470" lon="10.5733320"/>
  <wpt lat="47.0446750" lon="10.5739910"/>
  <wpt lat="47.0448470" lon="10.5746040"/>
  <wpt lat="47.0450670" lon="10.5750540"/>
  <wpt lat="47.0452930" lon="10.5756100"/>
  <wpt lat="47.0453780" lon="10.5761530"/>
  <wpt lat="47.0455310" lon="10.5766400"/>
  <wpt lat="47.0457440" lon="10.5770050"/>
  <wpt lat="47.0459410" lon="10.5774620"/>
  <wpt lat="47.0460650" lon="10.5779690"/>
  <wpt lat="47.0461750" lon="10.5784470"/>
  <wpt lat="47.0463720" lon="10.5788210"/>
  <wpt lat="47.0465760" lon="10.5792620"/>
  <wpt lat="47.0466760" lon="10.5799300"/>
  <wpt lat="47.0468900" lon="10.5805610"/>
  <wpt lat="47.0469110" lon="10.5811000"/>
  <wpt lat="47.0468890" lon="10.5815470"/>
  <wpt lat="47.0468880" lon="10.5819800"/>
  <wpt lat="47.0469310" lon="10.5826170"/>
  <wpt lat="47.0470430" lon="10.5829910"/>
  <wpt lat="47.0470140" lon="10.5834210"/>
  <wpt lat="47.0469500" lon="10.5839980"/>
  <wpt lat="47.0469530" lon="10.5844460"/>
  <wpt lat="47.0469210" lon="10.5848950"/>
  <wpt lat="47.0468330" lon="10.5852910"/>
  <wpt lat="47.0467520" lon="10.5857080"/>
  <wpt lat="47.0467690" lon="10.5861750"/>
  <wpt lat="47.0468030" lon="10.5865930"/>
  <wpt lat="47.0467940" lon="10.5871770"/>
  <wpt lat="47.0467080" lon="10.5876470"/>
  <wpt lat="47.0465040" lon="10.5881370"/>
  <wpt lat="47.0462470" lon="10.5884490"/>
  <wpt lat="47.0621000" lon="10.5769710"/>
  <wpt lat="47.0622150" lon="10.5771930"/>
  <wpt lat="47.0624370" lon="10.5774850"/>
  <wpt lat="47.0625130" lon="10.5778050"/>
  <wpt lat="47.0626240" lon="10.5781900"/>
  <wpt lat="47.0626310" lon="10.5784980"/>
  <wpt lat="47.0626910" lon="10.5789100"/>
  <wpt lat="47.0626640" lon="10.5794020"/>
  <wpt lat="47.0626000" lon="10.5799960"/>
  <wpt lat="47.0624190" lon="10.5804530"/>
  <wpt lat="47.0623700" lon="10.5809230"/>
  <wpt lat="47.0622540" lon="10.5813940"/>
  <wpt lat="47.0623260" lon="10.5818490"/>
  <wpt lat="47.0624540" lon="10.5822800"/>
  <wpt lat="47.0624880" lon="10.5826700"/>
  <wpt lat="47.0625520" lon="10.5831050"/>
  <wpt lat="47.0625910" lon="10.5835420"/>
  <wpt lat="47.0626880" lon="10.5838410"/>
  <wpt lat="47.0627020" lon="10.5842850"/>
  <wpt lat="47.0626030" lon="10.5846870"/>
  <wpt lat="47.0626140" lon="10.5850560"/>
  <wpt lat="47.0627240" lon="10.5855440"/>
  <wpt lat="47.0625600" lon="10.5860140"/>
  <wpt lat="47.0625500" lon="10.5865020"/>
  <wpt lat="47.0625410" lon="10.5870310"/>
  <wpt lat="47.0625460" lon="10.5874480"/>
  <wpt lat="47.0624320" lon="10.5878180"/>
  <wpt lat="47.0624040" lon="10.5881670"/>
  <wpt lat="47.0623380" lon="10.5886380"/>
  <wpt lat="47.0623250" lon="10.5891910"/>
  <wpt lat="47.0624820" lon="10.5896170"/>
  <wpt lat="47.0624640" lon="10.5901120"/>
  <wpt lat="47.0624140" lon="10.5906210"/>
  <wpt lat="47.0621370" lon="10.5906120"/>
  <wpt lat="47.0618300" lon="10.5908510"/>
  <wpt lat="47.0616470" lon="10.5912080"/>
  <wpt lat="47.0612080" lon="10.5910360"/>
  <wpt lat="47.0609330" lon="10.5913430"/>
  <wpt lat="47.0607010" lon="10.5916560"/>
  <wpt lat="47.0604470" lon="10.5920290"/>
  <wpt lat="47.0601710" lon="10.5923080"/>
  <wpt lat="47.0599500" lon="10.5925460"/>
  <wpt lat="47.0598230" lon="10.5932450"/>
  <wpt lat="47.0595560" lon="10.5937510"/>
  <wpt lat="47.0590790" lon="10.5939910"/>
  <wpt lat="47.0587340" lon="10.5941780"/>
  <wpt lat="47.0583910" lon="10.5944070"/>
  <wpt lat="47.0579360" lon="10.5945690"/>
  <wpt lat="47.0575930" lon="10.5947920"/>
  <wpt lat="47.0572350" lon="10.5951010"/>
  <wpt lat="47.0569300" lon="10.5951730"/>
  <wpt lat="47.0565660" lon="10.5955130"/>
  <wpt lat="47.0561540" lon="10.5956300"/>
  <wpt lat="47.0560290" lon="10.5960360"/>
  <wpt lat="47.0559060" lon="10.5964780"/>
  <wpt lat="47.0555210" lon="10.5967430"/>
  <wpt lat="47.0550660" lon="10.5969320"/>
  <wpt lat="47.0547700" lon="10.5972140"/>
  <wpt lat="47.0545460" lon="10.5976350"/>
  <wpt lat="47.0542670" lon="10.5979870"/>
  <wpt lat="47.0541870" lon="10.5984010"/>
  <wpt lat="47.0540060" lon="10.5989130"/>
  <wpt lat="47.0537200" lon="10.5991960"/>
  <wpt lat="47.0533930" lon="10.5996180"/>
  <wpt lat="47.0532200" lon="10.6001010"/>
  <wpt lat="47.0532140" lon="10.6005790"/>
  <wpt lat="47.0532580" lon="10.6011030"/>
  <wpt lat="47.0531490" lon="10.6015760"/>
  <wpt lat="47.0530060" lon="10.6019630"/>
  <wpt lat="47.0528200" lon="10.6023290"/>
  <wpt lat="47.0526240" lon="10.6027510"/>
  <wpt lat="47.0524960" lon="10.6030750"/>
  <wpt lat="47.0523220" lon="10.6033820"/>
  <wpt lat="47.0522680" lon="10.6038460"/>
  <wpt lat="47.0522510" lon="10.6043370"/>
  <wpt lat="47.0522090" lon="10.6047780"/>
  <wpt lat="47.0520690" lon="10.6053120"/>
  <wpt lat="47.0518810" lon="10.6058750"/>
  <wpt lat="47.0517230" lon="10.6064400"/>
  <wpt lat="47.0517430" lon="10.6070370"/>
  <wpt lat="47.0519720" lon="10.6074270"/>
  <wpt lat="47.0522760" lon="10.6076390"/>
  <wpt lat="47.0526430" lon="10.6077610"/>
  <wpt lat="47.0530500" lon="10.6077880"/>
  <wpt lat="47.0533550" lon="10.6081390"/>
  <wpt lat="47.0535390" lon="10.6086470"/>
  <wpt lat="47.0536790" lon="10.6089160"/>
  <wpt lat="47.0539100" lon="10.6090440"/>
  <wpt lat="47.0540580" lon="10.6093310"/>
  <wpt lat="47.0540260" lon="10.6093080"/>
</gpx>
